{
    "links": {
        "self": "http://www.neowsapp.com/rest/v1/neo/3558276?api_key=iIulBulltgU6a56xZRHN4H3l9WmuAYTsLGpBGhQ2"
    },
    "id": "3558276",
    "neo_reference_id": "3558276",
    "name": "(2011 EH)",
    "designation": "2011 EH",
    "nasa_jpl_url": "http://ssd.jpl.nasa.gov/sbdb.cgi?sstr=3558276",
    "absolute_magnitude_h": 25.5,
    "estimated_diameter": {
        "kilometers": {
            "estimated_diameter_min": 0.0211132445,
            "estimated_diameter_max": 0.0472106499
        },
        "meters": {
            "estimated_diameter_min": 21.113244479,
            "estimated_diameter_max": 47.2106498806
        },
        "miles": {
            "estimated_diameter_min": 0.0131191578,
            "estimated_diameter_max": 0.0293353287
        },
        "feet": {
            "estimated_diameter_min": 69.2691770164,
            "estimated_diameter_max": 154.8905885541
        }
    },
    "is_potentially_hazardous_asteroid": false,
    "close_approach_data": [
        {
            "close_approach_date": "2011-02-19",
            "close_approach_date_full": "2011-Feb-19 17:37",
            "epoch_date_close_approach": 1298137020000,
            "relative_velocity": {
                "kilometers_per_second": "13.577167873",
                "kilometers_per_hour": "48877.8043429458",
                "miles_per_hour": "30370.7668152043"
            },
            "miss_distance": {
                "astronomical": "0.0273171824",
                "lunar": "10.6263839536",
                "kilometers": "4086592.301441488",
                "miles": "2539290.7076410144"
            },
            "orbiting_body": "Earth"
        }
    ],
    "orbital_data": {
        "orbit_id": "6",
        "orbit_determination_date": "2017-04-06 08:54:20",
        "first_observation_date": "2011-03-01",
        "last_observation_date": "2011-03-03",
        "data_arc_in_days": 2,
        "observations_used": 23,
        "orbit_uncertainty": "9",
        "minimum_orbit_intersection": ".00750504",
        "jupiter_tisserand_invariant": "4.459",
        "epoch_osculation": "2455622.5",
        "eccentricity": ".483441101574799",
        "semi_major_axis": "1.475098897897099",
        "inclination": "2.341488388103863",
        "ascending_node_longitude": "339.2073747523065",
        "orbital_period": "654.3801766924822",
        "perihelion_distance": ".7619754617659533",
        "perihelion_argument": "96.56415092985036",
        "aphelion_distance": "2.188222334028244",
        "perihelion_time": "2455563.149172093028",
        "mean_anomaly": "32.65120003253207",
        "mean_motion": ".5501389143839812",
        "equinox": "J2000",
        "orbit_class": {
            "orbit_class_type": "APO",
            "orbit_class_description": "Near-Earth asteroid orbits which cross the Earth’s orbit similar to that of 1862 Apollo",
            "orbit_class_range": "a (semi-major axis) > 1.0 AU; q (perihelion) < 1.017 AU"
        }
    },
    "is_sentry_object": false
}